STARLINK-30297          
1 57682U 23124V   26068.67699256 -.00004431  00000+0 -13768-3 0  9993
2 57682  53.1594 207.0771 0001032  89.9380 270.1739 15.30176235143565
STARLINK-30327          
1 57707U 23129K   26068.51769668  .00007635  00000+0  29314-3 0  9995
2 57707  42.9974  85.9834 0023030  70.8320 289.5022 15.26626807140903
